STARLINK-6254           
1 57090U 23088AU  24161.78886040  .00000598  00000+0  59325-4 0  9996
2 57090  43.0023 320.5727 0001405 253.5427 106.5261 15.02532013 54562
STARLINK-6262           
1 57091U 23088AV  24161.71683527 -.00000953  00000+0 -55477-4 0  9996
2 57091  43.0032 320.8919 0001272 263.6787  96.3911 15.02533337 54559
STARLINK-6225           
1 57092U 23088AW  24161.78553177 -.00000851  00000+0 -47964-4 0  9990
2 57092  43.0045 320.5492 0001301 272.7111  87.3582 15.02535101 54568
STARLINK-6229           
1 57093U 23088AX  24161.71017198 -.00001138  00000+0 -69221-4 0  9991
2 57093  43.0021 320.8417 0001212 258.8510 101.2196 15.02528878 54551
STARLINK-6235           
1 57094U 23088AY  24161.77553931  .00000081  00000+0  21045-4 0  9994
2 57094  43.0017 320.4710 0001104 257.3953 102.6766 15.02534179 54564
STARLINK-6132           
1 57101U 23090A   24161.66651940  .00000443  00000+0  47906-4 0  9999
2 57101  43.0016 141.8771 0001377 271.3889  88.6795 15.02528974 54437
STARLINK-6111           
1 57102U 23090B   24161.66096729  .00000633  00000+0  61910-4 0  9990
2 57102  43.0020 141.8358 0001167 259.5925 100.4786 15.02533074 54430
STARLINK-6123           
1 57103U 23090C   24161.59056254 -.00000564  00000+0 -26716-4 0  9992
2 57103  43.0026 116.1330 0001232 264.3991  95.6710 15.02531468 54721
STARLINK-6130           
1 57104U 23090D   24161.66318497  .00001121  00000+0  98009-4 0  9993
2 57104  43.0025 141.8522 0000514 275.8756  84.2027 15.02537202 54432
STARLINK-6097           
1 57105U 23090E   24161.65985928 -.00000140  00000+0  47249-5 0  9994
2 57105  43.0028 141.8281 0000910 288.7031  71.3713 15.02532512 54435
STARLINK-6118           
1 57106U 23090F   24161.65430784  .00000125  00000+0  24335-4 0  9992
2 57106  43.0021 141.7834 0000694 272.9245  87.1518 15.02536167 54431
STARLINK-6131           
1 57107U 23090G   24161.64099178  .00001618  00000+0  13483-3 0  9999
2 57107  42.9980 141.6865 0000954 283.6061  76.4675 15.02528246 54435
STARLINK-6099           
1 57108U 23090H   24161.65652687 -.00000025  00000+0  13211-4 0  9993
2 57108  43.0038 141.8029 0000994 278.1737  81.8993 15.02534855 54435
STARLINK-6139           
1 57109U 23090J   24161.64653582  .00000109  00000+0  23176-4 0  9991
2 57109  43.0042 141.7280 0001249 260.4137  99.6564 15.02535792 54433
STARLINK-6134           
1 57110U 23090K   24161.65763570  .00000544  00000+0  55362-4 0  9998
2 57110  43.0021 141.8121 0001031 272.4996  87.5728 15.02535144 54431
STARLINK-6140           
1 57111U 23090L   24161.63433408 -.00000913  00000+0 -52574-4 0  9995
2 57111  43.0017 141.6342 0000894 261.7021  98.3720 15.02528687 54432
STARLINK-6141           
1 57112U 23090M   24161.91689912  .00009615  00000+0  72647-3 0  9998
2 57112  43.0029 140.3146 0001538 254.3337 105.7335 15.02502675 54476
STARLINK-6142           
1 57113U 23090N   24161.63987564  .00000790  00000+0  73531-4 0  9991
2 57113  43.0020 141.6783 0001286 267.3592  92.7103 15.02534737 54434
STARLINK-6125           
1 57114U 23090P   24161.96893853  .00000918  00000+0  83003-4 0  9992
2 57114  43.0033 139.8448 0001217 274.2305  85.8398 15.02532811 54484
STARLINK-6085           
1 57115U 23090Q   24161.96338069 -.00001103  00000+0 -66591-4 0  9998
2 57115  43.0023 139.8023 0001101 262.9949  97.0768 15.02547547 54481
STARLINK-6129           
1 57116U 23090R   24161.64320851  .00000185  00000+0  28735-4 0  9999
2 57116  43.0013 141.7035 0001139 269.5933  90.4778 15.02531540 54432
STARLINK-6148           
1 57117U 23090S   24161.62767020 -.00000332  00000+0 -94796-5 0  9998
2 57117  43.0026 141.5823 0001130 271.8521  88.2192 15.02533655 54434
STARLINK-6151           
1 57118U 23090T   24161.63321835  .00000339  00000+0  40180-4 0  9992
2 57118  43.0024 141.6258 0001084 266.6606  93.4112 15.02531602 54430
STARLINK-6150           
1 57119U 23090U   24161.35732494  .00002749  00000+0  21850-3 0  9998
2 57119  43.0020 142.9929 0001426 260.0769  99.9913 15.02538368 54395
STARLINK-6147           
1 57120U 23090V   24161.62990752 -.00000922  00000+0 -53221-4 0  9994
2 57120  43.0024 141.6007 0000967 272.8576  87.2156 15.02522171 54439
STARLINK-6152           
1 57121U 23090W   24161.21548417  .00000739  00000+0  69802-4 0  9993
2 57121  43.0027 143.6491 0001170 268.1213  91.9495 15.02534467 54186
STARLINK-6149           
1 57122U 23090X   24161.35398839 -.00000256  00000+0 -39159-5 0  9999
2 57122  43.0021 142.9678 0001213 274.2331  85.8372 15.02536069 54396
STARLINK-6154           
1 57123U 23090Y   24161.67749487  .00000180  00000+0  28426-4 0  9992
2 57123  43.0020 141.0940 0001426 257.8994 102.1688 15.02533371 54257
STARLINK-6146           
1 57124U 23090Z   24161.01937416  .00000597  00000+0  59249-4 0  9991
2 57124  43.0023 144.7587 0001013 266.2164  93.8563 15.02536959 54346
STARLINK-6100           
1 57125U 23090AA  24161.92935301  .00000185  00000+0  28798-4 0  9991
2 57125  43.0030 127.3879 0001201 264.9863  95.0842 15.02534144 54434
STARLINK-6167           
1 57126U 23090AB  24161.21770013  .00000392  00000+0  44081-4 0  9994
2 57126  43.0013 143.6653 0000914 264.7034  95.3704 15.02537523 54372
STARLINK-6165           
1 57127U 23090AC  24161.67307496  .00011710  00000+0  88110-3 0  9992
2 57127  43.0022 141.0614 0001237 268.3445  91.7256 15.02507679 54255
STARLINK-6163           
1 57128U 23090AD  24161.21436622  .00000489  00000+0  51263-4 0  9998
2 57128  42.9993 143.6386 0000600 267.1889  92.8884 15.02539082 54181
STARLINK-6170           
1 57129U 23090AE  24161.61139168 -.00000876  00000+0 -49761-4 0  9990
2 57129  43.0022 129.3032 0001005 263.8343  96.2385 15.02530973 54380
STARLINK-6172           
1 57130U 23090AF  24161.67416673  .00001812  00000+0  14922-3 0  9996
2 57130  43.0027 141.0705 0001341 272.0273  88.0416 15.02530411 54259
STARLINK-6162           
1 57131U 23090AG  24161.60695425 -.00001694  00000+0 -11041-3 0  9993
2 57131  43.0020 129.2690 0001126 261.8146  98.2569 15.02528276 53437
STARLINK-6128           
1 57132U 23090AH  24161.66750854  .00000537  00000+0  54836-4 0  9991
2 57132  43.0023 141.0200 0001053 269.9061  90.1660 15.02532772 54254
STARLINK-6143           
1 57133U 23090AJ  24161.19476663 -.00002226  00000+0 -14979-3 0  9995
2 57133  43.0016 131.3352 0001399 264.0319  96.0364 15.02525319 54325
STARLINK-6133           
1 57134U 23090AK  24161.60805961  .00000424  00000+0  46434-4 0  9997
2 57134  43.0030 129.2808 0001132 278.0390  82.0323 15.02539900 54380
STARLINK-6127           
1 57135U 23090AL  24161.91603294  .00000256  00000+0  34042-4 0  9992
2 57135  43.0015 127.2866 0000837 265.4328  94.6419 15.02539709 54436
STARLINK-6112           
1 57136U 23090AM  24161.60472799 -.00007014  00000+0 -50379-3 0  9994
2 57136  43.0050 129.2493 0000460 282.1790  77.9001 15.02600855 53436
STARLINK-5347           
1 57137U 23090AN  24161.92380034  .00000525  00000+0  53912-4 0  9995
2 57137  43.0038 127.3463 0001342 265.8901  94.1787 15.02537178 54431
STARLINK-5336           
1 57138U 23090AP  24161.60362462  .00000567  00000+0  57008-4 0  9992
2 57138  43.0034 129.2426 0001217 275.7049  84.3654 15.02535640 54382
STARLINK-5355           
1 57139U 23090AQ  24161.91936203 -.00000484  00000+0 -20736-4 0  9995
2 57139  43.0014 127.3071 0000944 263.7960  96.2775 15.02538343 54436
STARLINK-5354           
1 57140U 23090AR  24162.00001157  .01376542  00000+0  15182-1 0  9995
2 57140  43.0028 121.5125 0001770 249.6395 284.6102 15.59507351  5702
STARLINK-5357           
1 57141U 23090AS  24161.38199305 -.00000068  00000+0  10016-4 0  9990
2 57141  43.0021 130.1543 0000993 270.1933  89.8796 15.02533916 54352
STARLINK-5361           
1 57142U 23090AT  24161.37755063  .00000285  00000+0  36205-4 0  9997
2 57142  43.0023 130.1221 0001231 276.6635  83.4067 15.02535047 53407
STARLINK-5358           
1 57143U 23090AU  24161.90604776  .00000201  00000+0  29989-4 0  9990
2 57143  43.0044 127.2060 0001845 261.0473  99.0160 15.02530255 54435
STARLINK-5150           
1 57144U 23090AV  24161.91714186  .00000522  00000+0  53723-4 0  9998
2 57144  43.0040 127.2925 0001485 276.7146  83.3527 15.02534808 54433
STARLINK-5768           
1 57145U 23090AW  24161.63125548 -.00000079  00000+0  92623-5 0  9997
2 57145  43.0025 128.5849 0001292 264.6642  95.4053 15.02529019 54390
STARLINK-5791           
1 57146U 23090AX  24161.63791340 -.00001213  00000+0 -74745-4 0  9993
2 57146  43.0028 128.6352 0001168 258.8774 101.1937 15.02533085 54391
STARLINK-5765           
1 57147U 23090AY  24161.62681022  .00001340  00000+0  11421-3 0  9998
2 57147  43.0026 128.5525 0001052 271.7437  88.3285 15.02537062 54585
STARLINK-5788           
1 57148U 23090AZ  24161.62015386  .00000757  00000+0  71105-4 0  9990
2 57148  43.0035 128.5032 0001227 271.3346  88.7356 15.02533625 54391
STARLINK-5778           
1 57149U 23090BA  24161.90655358 -.00000306  00000+0 -75662-5 0  9996
2 57149  43.0022 101.1655 0001285 238.9319 121.1397 15.02527778 54927
STARLINK-5780           
1 57150U 23090BB  24161.63457424 -.00013767  00000+0 -10045-2 0  9998
2 57150  43.0027 128.6081 0000919 318.6856  41.3917 15.02595002 54584
STARLINK-5776           
1 57151U 23090BC  24161.63347205 -.00000120  00000+0  61714-5 0  9994
2 57151  43.0027 128.6003 0001081 271.2355  88.8364 15.02539878 54589
STARLINK-6164           
1 57152U 23090BD  24161.63679884  .00001585  00000+0  13237-3 0  9996
2 57152  43.0024 128.6251 0001005 271.6495  88.4233 15.02533120 54582
STARLINK-5879           
1 57153U 23090BE  24161.92627772  .00001079  00000+0  94942-4 0  9999
2 57153  43.0011 114.3413 0001069 263.6637  96.4084 15.02531660 54276
STARLINK-6106           
1 57154U 23090BF  24161.89383391  .00002543  00000+0  20328-3 0  9995
2 57154  43.0025 127.1146 0001199 274.0107  86.0598 15.02536674 54623
